ORBCOMM FM05            
1 25117U 97084F   25261.06813856  .00001161  00000+0  36152-3 0  9995
2 25117  45.0145 282.0127 0004344 296.2722  63.7683 14.46207250454056
ORBCOMM FM06            
1 25118U 97084G   25260.59702237  .00001225  00000+0  37820-3 0  9997
2 25118  45.0139 283.9092 0003445 286.3844 226.4557 14.46353544454907
ORBCOMM FM07            
1 25119U 97084H   25261.13350733  .00001197  00000+0  37033-3 0  9993
2 25119  45.0133 282.0945 0005174 297.9596  62.0732 14.46363824454970
ORBCOMM FM03            
1 25158U 98007B   25261.00495213  .00000823  00000+0  33379-3 0  9995
2 25158 107.9649 326.3048 0042761  87.0343 273.5689 14.34693306437351
ORBCOMM FM04            
1 25159U 98007C   25261.18239926  .00000800  00000+0  32463-3 0  9990
2 25159 107.9634 329.9523 0038485  83.9953 276.5571 14.34939398437563
ORBCOMM FM17            
1 25413U 98046A   25261.18976277  .00000787  00000+0  32149-3 0  9998
2 25413  44.9937 178.6293 0004351 326.0767  33.9801 14.35256109416532
ORBCOMM FM18            
1 25414U 98046B   25260.98559648  .00000954  00000+0  35362-3 0  9991
2 25414  44.9923  94.4927 0004857  38.9939 321.1259 14.38772580417616
ORBCOMM FM19            
1 25415U 98046C   25260.96683544  .00000958  00000+0  35616-3 0  9999
2 25415  44.9935  96.7256 0003634  35.8168  79.1693 14.38585164417568
